FLOCK 4S-29             
1 47520U 21006DL  21195.14218887  .00001647  00000-0  98429-4 0  9998
2 47520  97.4855 255.6237 0008977  30.5638 329.6114 15.12420960 26075
FLOCK 4S-15             
1 47521U 21006DM  21195.40291150  .00001929  00000-0  11426-3 0  9996
2 47521  97.4941 256.1014 0009262  31.9003 328.2787 15.12559569 27081
FLOCK 4S-37             
1 47522U 21006DN  21194.68084139  .00001603  00000-0  95959-4 0  9996
2 47522  97.4942 255.3656 0009126  33.3558 326.8246 15.12413857 26976
FLOCK 4S-10             
1 47523U 21006DP  21194.76372898  .00001574  00000-0  94722-4 0  9992
2 47523  97.4876 255.2609 0009366  37.3001 322.8878 15.12230724 26015
LEMUR-2-JENNIFERSONG    
1 47525U 21006DR  21195.11236995  .00001571  00000-0  92005-4 0  9990
2 47525  97.4879 255.8667 0011965  19.6641 340.5049 15.13205492 26080
KEPLER-14 (STELLA)      
1 47526U 21006DS  21194.69226134  .00001059  00000-0  65102-4 0  9996
2 47526  97.4840 255.1218 0009363  33.1903 326.9913 15.12146864 26966
FLOCK 4S-7              
1 47527U 21006DT  21195.47627238  .00001480  00000-0  88909-4 0  9992
2 47527  97.4850 255.9352 0009401  31.8154 328.3643 15.12385390 27080
FLOCK 4S-14             
1 47528U 21006DU  21194.68259177  .00001649  00000-0  98683-4 0  9995
2 47528  97.4945 255.3673 0009328  34.0463 326.1365 15.12378790 26961
LEMUR-2-CHANTAL         
1 47529U 21006DV  21194.75677984  .00001067  00000-0  65551-4 0  9996
2 47529  97.4877 255.2598 0008350  29.6044 330.5658 15.12173931 26975
FLOCK 4S-36             
1 47530U 21006DW  21194.75119600  .00001533  00000-0  92034-4 0  9998
2 47530  97.4935 255.4110 0008740  32.4494 327.7273 15.12363758 26977
KEPLER-9 (ARTEMIS)      
1 47531U 21006DX  21195.09209984  .00000824  00000-0  51531-4 0  9991
2 47531  97.4953 255.7607 0009651  34.7106 325.4753 15.12123797 27021
YAOGAN-31 D             
1 47532U 21007A   21194.76103942 -.00000075  00000-0  25364-4 0  9997
2 47532  63.4078  84.1709 0016316 327.5084  32.4937 13.45213086 22269
YAOGAN-31 E             
1 47533U 21007B   21194.76106850 -.00000031  00000-0  10000-3 0  9991
2 47533  63.4076  83.2742 0016644 328.3223  31.6797 13.45213318 22277
YAOGAN-31 F             
1 47536U 21007E   21194.76085347 -.00000031  00000-0  10000-3 0  9991
2 47536  63.4071  83.2777 0016153 327.1488  32.8527 13.45214534 22284
LEMUR-2-NOOBNOOB        
1 47538U 21006DY  21195.12295759  .00001160  00000-0  69202-4 0  9995
2 47538  97.4937 255.9824 0011671  20.0064 340.1622 15.13066281 26088
FLOCK 4S-24             
1 47539U 21006DZ  21195.12188569  .00000598  00000-0  37499-4 0  9993
2 47539  97.4880 255.8559 0011689  14.6551 345.5016 15.12992247 26084
FLOCK 4S-20             
1 47540U 21006EA  21194.72802825  .00000567  00000-0  35783-4 0  9998
2 47540  97.4935 255.5858 0011395  16.3221 343.8375 15.12988201 25097
HIBER-4                 
1 47541U 21006EB  21194.73506829  .00000872  00000-0  53114-4 0  9992
2 47541  97.4849 255.3887 0011816  18.6758 341.4904 15.12913411 26027
FLOCK 4S-25             
1 47542U 21006EC  21194.73239891  .00000462  00000-0  29835-4 0  9993
2 47542  97.4861 255.4121 0011396  17.5702 342.5921 15.12948980 25090
FLOCK 4S-1              
1 47543U 21006ED  21194.73243205  .00001059  00000-0  63640-4 0  9993
2 47543  97.4859 255.4092 0010826  15.1325 345.0227 15.12976842 25092
FLOCK 4S-30             
1 47544U 21006EE  21195.14389456  .00001611  00000-0  96437-4 0  9993
2 47544  97.4861 255.6384 0008935  31.0855 329.0903 15.12411183 27036
FLOCK 4S-23             
1 47545U 21006EF  21195.44954975  .00000723  00000-0  44506-4 0  9994
2 47545  97.4890 256.2066 0011676  13.2996 346.8541 15.13056647 27101
COSMOS 2549             
1 47546U 21008A   21194.84052111 -.00000048  00000-0  19560-4 0  9994
2 47546  67.1480  39.0869 0005234 256.3977 103.6529 13.96671817 22539
STARLINK-1782           
1 47548U 21009A   21194.67556481  .00000465  00000-0  50142-4 0  9990
2 47548  53.0566  83.2691 0002183  86.0440 274.0798 15.06403664 24705
STARLINK-1806           
1 47549U 21009B   21195.13630582  .00000763  00000-0  70159-4 0  9999
2 47549  53.0558  81.1992 0002437  89.1342 270.9927 15.06402499 25373
STARLINK-1909           
1 47550U 21009C   21195.08193840  .00000984  00000-0  84917-4 0  9998
2 47550  53.0550  71.4405 0001374  85.3836 274.7310 15.06401781 25510
STARLINK-1938           
1 47551U 21009D   21194.74468833 -.00001478  00000-0 -80357-4 0  9993
2 47551  53.0557  92.9534 0002181  81.1162 279.0074 15.06395908 24575
STARLINK-1940           
1 47552U 21009E   21194.08582539  .00000760  00000-0  69926-4 0  9991
2 47552  53.0568  85.9157 0002156  82.2834 277.8400 15.06396181 24619
STARLINK-1951           
1 47553U 21009F   21194.73454089  .00000510  00000-0  53304-4 0  9998
2 47553  53.0582  83.0075 0007250 324.8443  35.2067 15.06393050 24713
STARLINK-1953           
1 47554U 21009G   21195.02020676  .00000077  00000-0  24246-4 0  9994
2 47554  53.0526 101.7279 0007756  81.3929 278.7939 15.06400013 25082
STARLINK-1954           
1 47555U 21009H   21194.72995684  .00000436  00000-0  48174-4 0  9996
2 47555  53.0581  93.0396 0001990  76.8204 283.3007 15.06388472 24571
STARLINK-1955           
1 47556U 21009J   21194.30054477  .00000893  00000-0  78879-4 0  9999
2 47556  53.0548 114.9490 0001765  72.7486 287.3697 15.06386804 24228
STARLINK-1956           
1 47557U 21009K   21195.25887213 -.00000941  00000-0 -44271-4 0  9992
2 47557  53.0574 110.6611 0001596  47.0436 313.0687 15.06394190 24973
STARLINK-1957           
1 47558U 21009L   21194.70875404  .00000343  00000-0  41918-4 0  9990
2 47558  53.0543  83.1287 0001907  88.6266 271.4942 15.06387832 24708
STARLINK-1958           
1 47559U 21009M   21194.67281033 -.00000960  00000-0 -45593-4 0  9996
2 47559  53.0570  73.2799 0001730  84.1779 275.9407 15.06390127 24842
STARLINK-1959           
1 47560U 21009N   21194.66542839  .00001170  00000-0  97400-4 0  9997
2 47560  53.0595  73.3167 0001663  79.6384 280.4792 15.06406235 24843
STARLINK-1960           
1 47561U 21009P   21195.11697687  .00000451  00000-0  49321-4 0  9991
2 47561  53.0732  91.2127 0008748  46.9505 313.2216 15.06400223 25236
STARLINK-1961           
1 47562U 21009Q   21195.13171087 -.00001244  00000-0 -64614-4 0  9990
2 47562  53.0558  91.2233 0002041  81.3152 278.8068 15.06391731 25236
STARLINK-1962           
1 47563U 21009R   21194.75574348  .00000541  00000-0  55262-4 0  9991
2 47563  53.0566  92.9044 0001885  74.1530 285.9666 15.06387367 24578
STARLINK-1963           
1 47564U 21009S   21194.69034454  .00000460  00000-0  49828-4 0  9995
2 47564  53.0560  83.2015 0002390  83.1968 276.9293 15.06391636 24706
STARLINK-1964           
1 47565U 21009T   21194.08950480  .00000617  00000-0  60333-4 0  9993
2 47565  53.0558  85.8986 0002009  85.5425 274.5793 15.06400008 24613
STARLINK-1965           
1 47566U 21009U   21194.68017352  .00000588  00000-0  58379-4 0  9996
2 47566  53.0557  73.2463 0001727  82.6971 277.4214 15.06403218 24845
STARLINK-1966           
1 47567U 21009V   21194.78338356 -.00001075  00000-0 -53313-4 0  9995
2 47567  53.0552 112.7901 0001853  61.6462 298.4714 15.06391517 24294
STARLINK-1967           
1 47568U 21009W   21194.80918941 -.00001542  00000-0 -84639-4 0  9997
2 47568  53.0564 112.6898 0001416  63.2712 296.8422 15.06389244 24307
STARLINK-1968           
1 47569U 21009X   21195.58335648  .00040283  00000-0  27074-2 0  9992
2 47569  53.0707  84.0037 0007355 277.1785 186.1390 15.06388058 25384
STARLINK-1969           
1 47570U 21009Y   21194.66912374 -.00001158  00000-0 -58887-4 0  9997
2 47570  53.0586  73.2996 0001812  83.0150 277.1045 15.06391593 24843
STARLINK-1970           
1 47571U 21009Z   21195.07733724 -.00000794  00000-0 -34395-4 0  9997
2 47571  53.0565  81.4631 0002192  93.2371 266.8869 15.06395597 25363
STARLINK-1971           
1 47572U 21009AA  21194.72717959  .00000548  00000-0  55681-4 0  9997
2 47572  53.0553  83.0324 0001912  81.8029 278.3177 15.06388477 24717
STARLINK-1975           
1 47573U 21009AB  21195.10313963  .00000679  00000-0  64486-4 0  9996
2 47573  53.0521  81.3861 0002063  87.0952 273.0273 15.06402101 25363
STARLINK-1976           
1 47574U 21009AC  21194.72072031 -.00001109  00000-0 -55545-4 0  9999
2 47574  53.0535 113.0666 0001496  61.3553 298.7586 15.06393843 24289
STARLINK-1977           
1 47575U 21009AD  21195.10775306  .00000730  00000-0  67892-4 0  9993
2 47575  53.0551 111.3296 0001535  69.9473 290.1681 15.06396996 24944
STARLINK-1978           
1 47576U 21009AE  21195.07458428  .00010315  00000-0  71159-3 0  9993
2 47576  53.0575  71.4784 0001964  75.8631 284.2577 15.06335195 25513
STARLINK-1979           
1 47577U 21009AF  21195.04923394  .00000437  00000-0  48251-4 0  9992
2 47577  53.0687  86.5460 0001970  87.0734 273.0481 15.06397650 25291
STARLINK-1980           
1 47578U 21009AG  21195.10960426  .00000534  00000-0  54742-4 0  9997
2 47578  53.0530  91.3298 0002000  82.9507 277.1709 15.06388521 25227
STARLINK-1981           
1 47579U 21009AH  21194.69400506 -.00000531  00000-0 -16762-4 0  9998
2 47579  53.0557  83.1857 0001545  70.9118 289.2038 15.06399336 24702
STARLINK-1982           
1 47580U 21009AJ  21194.71520974  .00000599  00000-0  59152-4 0  9997
2 47580  53.0497  93.1161 0002024  82.3111 277.8108 15.06390054 24562
STARLINK-1984           
1 47581U 21009AK  21194.69492744 -.00001510  00000-0 -82534-4 0  9994
2 47581  53.0548  73.1802 0001690  84.7818 275.3364 15.06386692 24849
STARLINK-1986           
1 47582U 21009AL  21195.08010826  .00000668  00000-0  63773-4 0  9991
2 47582  53.0565  91.4494 0002067  69.0446 291.0764 15.06396692 25224
STARLINK-1987           
1 47583U 21009AM  21194.72625552 -.00000955  00000-0 -45173-4 0  9995
2 47583  53.0565  93.0442 0002134  73.9408 286.1816 15.06401679 24575
